CTC2_L_00174016-03
1 10062U 24957CN  26075.70042824  .00000000  00000+0  00000-0 0  9992
2 10062  90.0000 180.0000 0000000   0.0000   0.0000 14.89338871    12
CTC2_L_00174016-04
1 10063U 25512SW  26075.70042824  .00000000  00000+0  00000-0 0  9991
2 10063  90.0000 180.0000 0000000   0.0000  90.0000 14.89338871    12
CTC2_L_00174017-01
1 10064U 25381DD  26075.70042824  .00000000  00000+0  00000-0 0  9996
2 10064  90.0000 192.0000 0000000   0.0000 192.0000 14.89338871    19
CTC2_L_00174017-02
1 10065U 26012EF  26075.70042824  .00000000  00000+0  00000-0 0  9999
2 10065  90.0000 192.0000 0000000   0.0000 282.0000 14.89338871    10
CTC2_L_00174017-03
1 10066U 25815HK  26075.70042824  .00000000  00000+0  00000-0 0  9990
2 10066  90.0000 192.0000 0000000   0.0000  12.0000 14.89338871    12
CTC2_L_00174017-04
1 10067U 25324GU  26075.70042824  .00000000  00000+0  00000-0 0  9996
2 10067  90.0000 192.0000 0000000   0.0000 102.0000 14.89338871    13
CTC2_L_00174018-01
1 10068U 22041IP  26075.70042824  .00000000  00000+0  00000-0 0  9990
2 10068  90.0000 204.0000 0000000   0.0000 204.0000 14.89338871    11
CTC2_L_00174018-02
1 10069U 25300OD  26075.70042824  .00000000  00000+0  00000-0 0  9992
2 10069  90.0000 204.0000 0000000   0.0000 294.0000 14.89338871    11
CTC2_L_00174018-03
1 10070U 26898CO  26075.70042824  .00000000  00000+0  00000-0 0  9997
2 10070  90.0000 204.0000 0000000   0.0000  24.0000 14.89338871    14
CTC2_L_00174018-04
1 10071U 23241JS  26075.70042824  .00000000  00000+0  00000-0 0  9997
2 10071  90.0000 204.0000 0000000   0.0000 114.0000 14.89338871    15
CTC2_L_00174019-01
1 10072U 22095WI  26075.70042824  .00000000  00000+0  00000-0 0  9994
2 10072  90.0000 216.0000 0000000   0.0000 216.0000 14.89338871    12
CTC2_L_00174019-02
1 10073U 22029LU  26075.70042824  .00000000  00000+0  00000-0 0  9992
2 10073  90.0000 216.0000 0000000   0.0000 306.0000 14.89338871    13
CTC2_L_00174019-03
1 10074U 25976AB  26075.70042824  .00000000  00000+0  00000-0 0  9997
2 10074  90.0000 216.0000 0000000   0.0000  36.0000 14.89338871    14
CTC2_L_00174019-04
1 10075U 24810HP  26075.70042824  .00000000  00000+0  00000-0 0  9994
2 10075  90.0000 216.0000 0000000   0.0000 126.0000 14.89338871    15
CTC2_L_00174020-01
1 10076U 23468CP  26075.70042824  .00000000  00000+0  00000-0 0  9993
2 10076  90.0000 228.0000 0000000   0.0000 228.0000 14.89338871    12
CTC2_L_00174020-02
1 10077U 26081VM  26075.70042824  .00000000  00000+0  00000-0 0  9998
2 10077  90.0000 228.0000 0000000   0.0000 318.0000 14.89338871    13
CTC2_L_00174020-03
1 10078U 22556PZ  26075.70042824  .00000000  00000+0  00000-0 0  9992
2 10078  90.0000 228.0000 0000000   0.0000  48.0000 14.89338871    14
CTC2_L_00174020-04
1 10079U 22651MR  26075.70042824  .00000000  00000+0  00000-0 0  9999
2 10079  90.0000 228.0000 0000000   0.0000 138.0000 14.89338871    15
CTC2_L_00174021-01
1 10080U 23347TO  26075.70042824  .00000000  00000+0  00000-0 0  9994
2 10080  90.0000 240.0000 0000000   0.0000 240.0000 14.89338871    15
CTC2_L_00174021-02
1 10081U 22964CU  26075.70042824  .00000000  00000+0  00000-0 0  9999
2 10081  90.0000 240.0000 0000000   0.0000 330.0000 14.89338871    16
CTC2_L_00174021-03
1 10082U 22551RC  26075.70042824  .00000000  00000+0  00000-0 0  9992
2 10082  90.0000 240.0000 0000000   0.0000  60.0000 14.89338871    17
CTC2_L_00174021-04
1 10083U 26893NM  26075.70042824  .00000000  00000+0  00000-0 0  9996
2 10083  90.0000 240.0000 0000000   0.0000 150.0000 14.89338871    18
CTC2_L_00174022-01
1 10084U 25277RJ  26075.70042824  .00000000  00000+0  00000-0 0  9992
2 10084  90.0000 252.0000 0000000   0.0000 252.0000 14.89338871    15
CTC2_L_00174022-02
1 10085U 26346LU  26075.70042824  .00000000  00000+0  00000-0 0  9991
2 10085  90.0000 252.0000 0000000   0.0000 342.0000 14.89338871    16
CTC2_L_00174022-03
1 10086U 25977HJ  26075.70042824  .00000000  00000+0  00000-0 0  9991
2 10086  90.0000 252.0000 0000000   0.0000  72.0000 14.89338871    17
CTC2_L_00174022-04
1 10087U 24080GS  26075.70042824  .00000000  00000+0  00000-0 0  9996
2 10087  90.0000 252.0000 0000000   0.0000 162.0000 14.89338871    18
CTC2_L_00174023-01
1 10088U 22015DU  26075.70042824  .00000000  00000+0  00000-0 0  9993
2 10088  90.0000 264.0000 0000000   0.0000 264.0000 14.89338871    15
CTC2_L_00174023-02
1 10089U 23126SC  26075.70042824  .00000000  00000+0  00000-0 0  9998
2 10089  90.0000 264.0000 0000000   0.0000 354.0000 14.89338871    16
CTC2_L_00174023-03
1 10090U 25974YH  26075.70042824  .00000000  00000+0  00000-0 0  9993
2 10090  90.0000 264.0000 0000000   0.0000  84.0000 14.89338871    18
CTC2_L_00174023-04
1 10091U 22119GM  26075.70042824  .00000000  00000+0  00000-0 0  9992
2 10091  90.0000 264.0000 0000000   0.0000 174.0000 14.89338871    19
CTC2_L_00174024-01
1 10092U 24098ZS  26075.70042824  .00000000  00000+0  00000-0 0  9991
2 10092  90.0000 276.0000 0000000   0.0000 276.0000 14.89338871    16
CTC2_L_00174024-02
1 10093U 24305PI  26075.70042824  .00000000  00000+0  00000-0 0  9993
2 10093  90.0000 276.0000 0000000   0.0000   6.0000 14.89338871    18
CTC2_L_00174024-03
1 10094U 22212HJ  26075.70042824  .00000000  00000+0  00000-0 0  9999
2 10094  90.0000 276.0000 0000000   0.0000  96.0000 14.89338871    18
CTC2_L_00174024-04
1 10095U 26555JL  26075.70042824  .00000000  00000+0  00000-0 0  9994
2 10095  90.0000 276.0000 0000000   0.0000 186.0000 14.89338871    19
CTC2_L_00174025-01
1 10096U 22955R   26075.70042824  .00000000  00000+0  00000-0 0  9995
2 10096  90.0000 288.0000 0000000   0.0000 288.0000 14.89338871    16
CTC2_L_00174025-02
1 10097U 23565EG  26075.70042824  .00000000  00000+0  00000-0 0  9994
2 10097  90.0000 288.0000 0000000   0.0000  18.0000 14.89338871    18
CTC2_L_00174025-03
1 10098U 23638GK  26075.70042824  .00000000  00000+0  00000-0 0  9996
2 10098  90.0000 288.0000 0000000   0.0000 108.0000 14.89338871    19
CTC2_L_00174025-04
1 10099U 26684OW  26075.70042824  .00000000  00000+0  00000-0 0  9991
2 10099  90.0000 288.0000 0000000   0.0000 198.0000 14.89338871    19
CTC2_L_00174026-01
1 10100U 26925OL  26075.70042824  .00000000  00000+0  00000-0 0  9992
2 10100  90.0000 300.0000 0000000   0.0000 300.0000 14.89338871    12
CTC2_L_00174026-02
1 10101U 22211AB  26075.70042824  .00000000  00000+0  00000-0 0  9997
2 10101  90.0000 300.0000 0000000   0.0000  30.0000 14.89338871    13
CTC2_L_00174026-03
1 10102U 25265OH  26075.70042824  .00000000  00000+0  00000-0 0  9990
2 10102  90.0000 300.0000 0000000   0.0000 120.0000 14.89338871    14
CTC2_L_00174026-04
1 10103U 25912RP  26075.70042824  .00000000  00000+0  00000-0 0  9990
2 10103  90.0000 300.0000 0000000   0.0000 210.0000 14.89338871    15
CTC2_L_00174027-01
1 10104U 26744NE  26075.70042824  .00000000  00000+0  00000-0 0  9995
2 10104  90.0000 312.0000 0000000   0.0000 312.0000 14.89338871    12
CTC2_L_00174027-02
1 10105U 25331IB  26075.70042824  .00000000  00000+0  00000-0 0  9997
2 10105  90.0000 312.0000 0000000   0.0000  42.0000 14.89338871    13
CTC2_L_00174027-03
1 10106U 26047KC  26075.70042824  .00000000  00000+0  00000-0 0  9993
2 10106  90.0000 312.0000 0000000   0.0000 132.0000 14.89338871    14
CTC2_L_00174027-04
1 10107U 26958BM  26075.70042824  .00000000  00000+0  00000-0 0  9995
2 10107  90.0000 312.0000 0000000   0.0000 222.0000 14.89338871    15
CTC2_L_00174028-01
1 10108U 23085UR  26075.70042824  .00000000  00000+0  00000-0 0  9994
2 10108  90.0000 324.0000 0000000   0.0000 324.0000 14.89338871    12
CTC2_L_00174028-02
1 10109U 25840UU  26075.70042824  .00000000  00000+0  00000-0 0  9996
2 10109  90.0000 324.0000 0000000   0.0000  54.0000 14.89338871    13
CTC2_L_00174028-03
1 10110U 26562EH  26075.70042824  .00000000  00000+0  00000-0 0  9990
2 10110  90.0000 324.0000 0000000   0.0000 144.0000 14.89338871    15
CTC2_L_00174028-04
1 10111U 23271TY  26075.70042824  .00000000  00000+0  00000-0 0  9995
2 10111  90.0000 324.0000 0000000   0.0000 234.0000 14.89338871    16
CTC2_L_00174029-01
1 10112U 23667QT  26075.70042824  .00000000  00000+0  00000-0 0  9995
2 10112  90.0000 336.0000 0000000   0.0000 336.0000 14.89338871    13
CTC2_L_00174029-02
1 10113U 25861TK  26075.70042824  .00000000  00000+0  00000-0 0  9994
2 10113  90.0000 336.0000 0000000   0.0000  66.0000 14.89338871    14
CTC2_L_00174029-03
1 10114U 23810AS  26075.70042824  .00000000  00000+0  00000-0 0  9997
2 10114  90.0000 336.0000 0000000   0.0000 156.0000 14.89338871    15
CTC2_L_00174029-04
1 10115U 24359UU  26075.70042824  .00000000  00000+0  00000-0 0  9997
2 10115  90.0000 336.0000 0000000   0.0000 246.0000 14.89338871    16
CTC2_L_00174030-01
1 10116U 22727MG  26075.70042824  .00000000  00000+0  00000-0 0  9995
2 10116  90.0000 348.0000 0000000   0.0000 348.0000 14.89338871    13
CTC2_L_00174030-02
1 10117U 22857TY  26075.70042824  .00000000  00000+0  00000-0 0  9990
2 10117  90.0000 348.0000 0000000   0.0000  78.0000 14.89338871    14
CTC2_L_00174030-03
1 10118U 26397NX  26075.70042824  .00000000  00000+0  00000-0 0  9994
2 10118  90.0000 348.0000 0000000   0.0000 168.0000 14.89338871    15
CTC2_L_00174030-04
1 10119U 25963DW  26075.70042824  .00000000  00000+0  00000-0 0  9993
2 10119  90.0000 348.0000 0000000   0.0000 258.0000 14.89338871    16
